[{"OBJECT_NAME":"ICESAT-2","OBJECT_ID":"2018-070A","EPOCH":"2026-03-09T22:54:12.225888","MEAN_MOTION":15.28328617,"ECCENTRICITY":0.00038245,"INCLINATION":91.9993,"RA_OF_ASC_NODE":264.2397,"ARG_OF_PERICENTER":123.8941,"MEAN_ANOMALY":236.2673,"EPHEMERIS_TYPE":0,"CLASSIFICATION_TYPE":"U","NORAD_CAT_ID":43613,"ELEMENT_SET_NO":999,"REV_AT_EPOCH":41730,"BSTAR":0.00014022643,"MEAN_MOTION_DOT":3.87e-5,"MEAN_MOTION_DDOT":0},{"OBJECT_NAME":"STARLINK-31511","OBJECT_ID":"2024-068H","EPOCH":"2026-03-09T07:34:28.879392","MEAN_MOTION":15.27576819,"ECCENTRICITY":0.00013745,"INCLINATION":43.0023,"RA_OF_ASC_NODE":36.79,"ARG_OF_PERICENTER":254.748,"MEAN_ANOMALY":105.322,"EPHEMERIS_TYPE":0,"CLASSIFICATION_TYPE":"U","NORAD_CAT_ID":59462,"ELEMENT_SET_NO":999,"REV_AT_EPOCH":10846,"BSTAR":-5.07593e-6,"MEAN_MOTION_DOT":-4.02e-6,"MEAN_MOTION_DDOT":0}]
